SL-3 R/B                
1 13154U 82039B   25304.80784516  .00003475  00000+0  21460-3 0  9993
2 13154  81.1839   4.3008 0032785  28.1366 332.1621 15.09190927362194
SL-3 R/B                
1 13403U 82079B   25304.83673369  .00006552  00000+0  27571-3 0  9998
2 13403  81.1489 345.0360 0024715 239.7537 120.1249 15.22945959358073
SL-14 R/B               
1 13553U 82092B   25304.87839029  .00000859  00000+0  94051-4 0  9992
2 13553  82.5663 261.8598 0020841  13.3267  43.3192 14.86480711309795
SL-3 R/B                
1 13819U 83010B   25304.87101003  .00016557  00000+0  38557-3 0  9992
2 13819  81.1045 159.6659 0018199 132.2227 228.0564 15.41972844338063
SL-3 R/B                
1 14208U 83075B   25304.82033921  .00014160  00000+0  41702-3 0  9998
2 14208  97.6106 299.9355 0022453 335.1518  24.8642 15.34913618310360
COSMOS 1536             
1 14699U 84013A   25304.79980885  .00010282  00000+0  45062-3 0  9995
2 14699  82.5466 235.7277 0016219  23.0466 337.1494 15.21748858253005
SL-14 R/B               
1 14820U 84027B   25304.66786132  .00000642  00000+0  70833-4 0  9995
2 14820  82.5444   6.0079 0019057  44.5533 315.7211 14.85810478228471
SL-8 R/B                
1 15483U 85006B   25304.87003200  .00000379  00000+0  13465-3 0  9994
2 15483  74.0431 138.1663 0017503  84.5918  17.6038 14.37683334135513
SL-12 R/B(2)            
1 15772U 85042D   25304.62584883  .00000076  00000+0  55904-4 0  9998
2 15772  71.1098   0.3918 0036665 323.4905 190.9043 14.21932022 96044
SL-14 R/B               
1 15945U 85069B   25304.82622545  .00000640  00000+0  69949-4 0  9990
2 15945  82.5253 146.1081 0017320 258.6553 101.2718 14.86251327153692
SL-16 R/B               
1 16182U 85097B   25304.77473435  .00000124  00000+0  86100-4 0  9996
2 16182  71.0042  51.9481 0005163  93.5471  20.4243 14.16576481 68974
SL-14 R/B               
1 16496U 86006B   25304.69976618  .00000840  00000+0  87146-4 0  9993
2 16496  82.5299  21.1006 0076311 341.3902  18.4525 14.86585814130046
