CCSDS_OMM_VERS = 2.0
CREATION_DATE  = 
ORIGINATOR     = 

OBJECT_NAME    = SL-3 R/B
OBJECT_ID      = 1982-039B
CENTER_NAME    = EARTH
REF_FRAME      = TEME
TIME_SYSTEM    = UTC
MEAN_ELEMENT_THEORY = SGP/SGP4

EPOCH          = 2025-10-31T19:23:17.821824
MEAN_MOTION    = 15.09190927
ECCENTRICITY   = .0032785
INCLINATION    = 81.1839
RA_OF_ASC_NODE = 4.3008
ARG_OF_PERICENTER = 28.1366
MEAN_ANOMALY   = 332.1621

EPHEMERIS_TYPE = 0
CLASSIFICATION_TYPE = U
NORAD_CAT_ID   = 13154
ELEMENT_SET_NO = 999
REV_AT_EPOCH   = 36219
BSTAR          = .2146E-3
MEAN_MOTION_DOT = .3475E-4
MEAN_MOTION_DDOT = 0

CCSDS_OMM_VERS = 2.0
CREATION_DATE  = 
ORIGINATOR     = 

OBJECT_NAME    = SL-3 R/B
OBJECT_ID      = 1982-079B
CENTER_NAME    = EARTH
REF_FRAME      = TEME
TIME_SYSTEM    = UTC
MEAN_ELEMENT_THEORY = SGP/SGP4

EPOCH          = 2025-10-31T20:04:53.790816
MEAN_MOTION    = 15.22945959
ECCENTRICITY   = .0024715
INCLINATION    = 81.1489
RA_OF_ASC_NODE = 345.0360
ARG_OF_PERICENTER = 239.7537
MEAN_ANOMALY   = 120.1249

EPHEMERIS_TYPE = 0
CLASSIFICATION_TYPE = U
NORAD_CAT_ID   = 13403
ELEMENT_SET_NO = 999
REV_AT_EPOCH   = 35807
BSTAR          = .27571E-3
MEAN_MOTION_DOT = .6552E-4
MEAN_MOTION_DDOT = 0

CCSDS_OMM_VERS = 2.0
CREATION_DATE  = 
ORIGINATOR     = 

OBJECT_NAME    = SL-14 R/B
OBJECT_ID      = 1982-092B
CENTER_NAME    = EARTH
REF_FRAME      = TEME
TIME_SYSTEM    = UTC
MEAN_ELEMENT_THEORY = SGP/SGP4

EPOCH          = 2025-10-31T21:04:52.921056
MEAN_MOTION    = 14.86480711
ECCENTRICITY   = .0020841
INCLINATION    = 82.5663
RA_OF_ASC_NODE = 261.8598
ARG_OF_PERICENTER = 13.3267
MEAN_ANOMALY   = 43.3192

EPHEMERIS_TYPE = 0
CLASSIFICATION_TYPE = U
NORAD_CAT_ID   = 13553
ELEMENT_SET_NO = 999
REV_AT_EPOCH   = 30979
BSTAR          = .94051E-4
MEAN_MOTION_DOT = .859E-5
MEAN_MOTION_DDOT = 0

CCSDS_OMM_VERS = 2.0
CREATION_DATE  = 
ORIGINATOR     = 

OBJECT_NAME    = SL-3 R/B
OBJECT_ID      = 1983-010B
CENTER_NAME    = EARTH
REF_FRAME      = TEME
TIME_SYSTEM    = UTC
MEAN_ELEMENT_THEORY = SGP/SGP4

EPOCH          = 2025-10-31T20:54:15.266592
MEAN_MOTION    = 15.41972844
ECCENTRICITY   = .0018199
INCLINATION    = 81.1045
RA_OF_ASC_NODE = 159.6659
ARG_OF_PERICENTER = 132.2227
MEAN_ANOMALY   = 228.0564

EPHEMERIS_TYPE = 0
CLASSIFICATION_TYPE = U
NORAD_CAT_ID   = 13819
ELEMENT_SET_NO = 999
REV_AT_EPOCH   = 33806
BSTAR          = .38557E-3
MEAN_MOTION_DOT = .16557E-3
MEAN_MOTION_DDOT = 0

CCSDS_OMM_VERS = 2.0
CREATION_DATE  = 
ORIGINATOR     = 

OBJECT_NAME    = SL-3 R/B
OBJECT_ID      = 1983-075B
CENTER_NAME    = EARTH
REF_FRAME      = TEME
TIME_SYSTEM    = UTC
MEAN_ELEMENT_THEORY = SGP/SGP4

EPOCH          = 2025-10-31T19:41:17.307744
MEAN_MOTION    = 15.34913618
ECCENTRICITY   = .0022453
INCLINATION    = 97.6106
RA_OF_ASC_NODE = 299.9355
ARG_OF_PERICENTER = 335.1518
MEAN_ANOMALY   = 24.8642

EPHEMERIS_TYPE = 0
CLASSIFICATION_TYPE = U
NORAD_CAT_ID   = 14208
ELEMENT_SET_NO = 999
REV_AT_EPOCH   = 31036
BSTAR          = .41702E-3
MEAN_MOTION_DOT = .1416E-3
MEAN_MOTION_DDOT = 0

CCSDS_OMM_VERS = 2.0
CREATION_DATE  = 
ORIGINATOR     = 

OBJECT_NAME    = COSMOS 1536
OBJECT_ID      = 1984-013A
CENTER_NAME    = EARTH
REF_FRAME      = TEME
TIME_SYSTEM    = UTC
MEAN_ELEMENT_THEORY = SGP/SGP4

EPOCH          = 2025-10-31T19:11:43.484640
MEAN_MOTION    = 15.21748858
ECCENTRICITY   = .0016219
INCLINATION    = 82.5466
RA_OF_ASC_NODE = 235.7277
ARG_OF_PERICENTER = 23.0466
MEAN_ANOMALY   = 337.1494

EPHEMERIS_TYPE = 0
CLASSIFICATION_TYPE = U
NORAD_CAT_ID   = 14699
ELEMENT_SET_NO = 999
REV_AT_EPOCH   = 25300
BSTAR          = .45062E-3
MEAN_MOTION_DOT = .10282E-3
MEAN_MOTION_DDOT = 0

CCSDS_OMM_VERS = 2.0
CREATION_DATE  = 
ORIGINATOR     = 

OBJECT_NAME    = SL-14 R/B
OBJECT_ID      = 1984-027B
CENTER_NAME    = EARTH
REF_FRAME      = TEME
TIME_SYSTEM    = UTC
MEAN_ELEMENT_THEORY = SGP/SGP4

EPOCH          = 2025-10-31T16:01:43.218048
MEAN_MOTION    = 14.85810478
ECCENTRICITY   = .0019057
INCLINATION    = 82.5444
RA_OF_ASC_NODE = 6.0079
ARG_OF_PERICENTER = 44.5533
MEAN_ANOMALY   = 315.7211

EPHEMERIS_TYPE = 0
CLASSIFICATION_TYPE = U
NORAD_CAT_ID   = 14820
ELEMENT_SET_NO = 999
REV_AT_EPOCH   = 22847
BSTAR          = .70833E-4
MEAN_MOTION_DOT = .642E-5
MEAN_MOTION_DDOT = 0

CCSDS_OMM_VERS = 2.0
CREATION_DATE  = 
ORIGINATOR     = 

OBJECT_NAME    = SL-8 R/B
OBJECT_ID      = 1985-006B
CENTER_NAME    = EARTH
REF_FRAME      = TEME
TIME_SYSTEM    = UTC
MEAN_ELEMENT_THEORY = SGP/SGP4

EPOCH          = 2025-10-31T20:52:50.764800
MEAN_MOTION    = 14.37683334
ECCENTRICITY   = .0017503
INCLINATION    = 74.0431
RA_OF_ASC_NODE = 138.1663
ARG_OF_PERICENTER = 84.5918
MEAN_ANOMALY   = 17.6038

EPHEMERIS_TYPE = 0
CLASSIFICATION_TYPE = U
NORAD_CAT_ID   = 15483
ELEMENT_SET_NO = 999
REV_AT_EPOCH   = 13551
BSTAR          = .13465E-3
MEAN_MOTION_DOT = .379E-5
MEAN_MOTION_DDOT = 0

CCSDS_OMM_VERS = 2.0
CREATION_DATE  = 
ORIGINATOR     = 

OBJECT_NAME    = SL-12 R/B(2)
OBJECT_ID      = 1985-042D
CENTER_NAME    = EARTH
REF_FRAME      = TEME
TIME_SYSTEM    = UTC
MEAN_ELEMENT_THEORY = SGP/SGP4

EPOCH          = 2025-10-31T15:01:13.338912
MEAN_MOTION    = 14.21932022
ECCENTRICITY   = .0036665
INCLINATION    = 71.1098
RA_OF_ASC_NODE = 0.3918
ARG_OF_PERICENTER = 323.4905
MEAN_ANOMALY   = 190.9043

EPHEMERIS_TYPE = 0
CLASSIFICATION_TYPE = U
NORAD_CAT_ID   = 15772
ELEMENT_SET_NO = 999
REV_AT_EPOCH   = 9604
BSTAR          = .55904E-4
MEAN_MOTION_DOT = .76E-6
MEAN_MOTION_DDOT = 0

CCSDS_OMM_VERS = 2.0
CREATION_DATE  = 
ORIGINATOR     = 

OBJECT_NAME    = SL-14 R/B
OBJECT_ID      = 1985-069B
CENTER_NAME    = EARTH
REF_FRAME      = TEME
TIME_SYSTEM    = UTC
MEAN_ELEMENT_THEORY = SGP/SGP4

EPOCH          = 2025-10-31T19:49:45.878880
MEAN_MOTION    = 14.86251327
ECCENTRICITY   = .001732
INCLINATION    = 82.5253
RA_OF_ASC_NODE = 146.1081
ARG_OF_PERICENTER = 258.6553
MEAN_ANOMALY   = 101.2718

EPHEMERIS_TYPE = 0
CLASSIFICATION_TYPE = U
NORAD_CAT_ID   = 15945
ELEMENT_SET_NO = 999
REV_AT_EPOCH   = 15369
BSTAR          = .69949E-4
MEAN_MOTION_DOT = .64E-5
MEAN_MOTION_DDOT = 0

CCSDS_OMM_VERS = 2.0
CREATION_DATE  = 
ORIGINATOR     = 

OBJECT_NAME    = SL-16 R/B
OBJECT_ID      = 1985-097B
CENTER_NAME    = EARTH
REF_FRAME      = TEME
TIME_SYSTEM    = UTC
MEAN_ELEMENT_THEORY = SGP/SGP4

EPOCH          = 2025-10-31T18:35:37.047840
MEAN_MOTION    = 14.16576481
ECCENTRICITY   = .0005163
INCLINATION    = 71.0042
RA_OF_ASC_NODE = 51.9481
ARG_OF_PERICENTER = 93.5471
MEAN_ANOMALY   = 20.4243

EPHEMERIS_TYPE = 0
CLASSIFICATION_TYPE = U
NORAD_CAT_ID   = 16182
ELEMENT_SET_NO = 999
REV_AT_EPOCH   = 6897
BSTAR          = .861E-4
MEAN_MOTION_DOT = .124E-5
MEAN_MOTION_DDOT = 0

CCSDS_OMM_VERS = 2.0
CREATION_DATE  = 
ORIGINATOR     = 

OBJECT_NAME    = SL-14 R/B
OBJECT_ID      = 1986-006B
CENTER_NAME    = EARTH
REF_FRAME      = TEME
TIME_SYSTEM    = UTC
MEAN_ELEMENT_THEORY = SGP/SGP4

EPOCH          = 2025-10-31T16:47:39.797952
MEAN_MOTION    = 14.86585814
ECCENTRICITY   = .0076311
INCLINATION    = 82.5299
RA_OF_ASC_NODE = 21.1006
ARG_OF_PERICENTER = 341.3902
MEAN_ANOMALY   = 18.4525

EPHEMERIS_TYPE = 0
CLASSIFICATION_TYPE = U
NORAD_CAT_ID   = 16496
ELEMENT_SET_NO = 999
REV_AT_EPOCH   = 13004
BSTAR          = .87146E-4
MEAN_MOTION_DOT = .84E-5
MEAN_MOTION_DDOT = 0

